STARLINK-2345_new
1 17886C 21021AC  21326.19324763  .00002266  00000-0  15189-3 0  3265
2 17886  53.0540 117.8671 0001729  82.9376  43.0380 15.06388791    14
STARLINK-2345_old
1 27886C 21021AC  21325.08909441  .00002717  00000-0  18213-3 0  3255
2 27886  53.0532 122.8236 0001738  82.9451 171.9083 15.06381219    11
